[{"OBJECT_NAME":"STARLINK-34276","OBJECT_ID":"2025-120H","EPOCH":"2026-01-24T20:02:37.064544","MEAN_MOTION":15.30230489,"ECCENTRICITY":0.00012845,"INCLINATION":53.1592,"RA_OF_ASC_NODE":320.2667,"ARG_OF_PERICENTER":103.3748,"MEAN_ANOMALY":256.7396,"EPHEMERIS_TYPE":0,"CLASSIFICATION_TYPE":"U","NORAD_CAT_ID":64263,"ELEMENT_SET_NO":999,"REV_AT_EPOCH":3720,"BSTAR":0.0015477013,"MEAN_MOTION_DOT":0.00045806,"MEAN_MOTION_DDOT":0},{"OBJECT_NAME":"STARLINK-34333","OBJECT_ID":"2025-120J","EPOCH":"2026-01-24T02:28:16.556160","MEAN_MOTION":15.30186232,"ECCENTRICITY":0.00016615,"INCLINATION":53.1604,"RA_OF_ASC_NODE":323.5158,"ARG_OF_PERICENTER":48.9301,"MEAN_ANOMALY":311.1843,"EPHEMERIS_TYPE":0,"CLASSIFICATION_TYPE":"U","NORAD_CAT_ID":64264,"ELEMENT_SET_NO":999,"REV_AT_EPOCH":3704,"BSTAR":0.00056069485,"MEAN_MOTION_DOT":0.00016276,"MEAN_MOTION_DDOT":0},{"OBJECT_NAME":"STARLINK-34240","OBJECT_ID":"2025-120K","EPOCH":"2026-01-24T19:33:55.020096","MEAN_MOTION":15.30183866,"ECCENTRICITY":0.00016146,"INCLINATION":53.1601,"RA_OF_ASC_NODE":320.8494,"ARG_OF_PERICENTER":73.3313,"MEAN_ANOMALY":286.7865,"EPHEMERIS_TYPE":0,"CLASSIFICATION_TYPE":"U","NORAD_CAT_ID":64265,"ELEMENT_SET_NO":999,"REV_AT_EPOCH":3719,"BSTAR":0.0017068953,"MEAN_MOTION_DOT":0.00050513,"MEAN_MOTION_DDOT":0},{"OBJECT_NAME":"STARLINK-34315","OBJECT_ID":"2025-120L","EPOCH":"2026-01-24T19:11:06.901152","MEAN_MOTION":15.30217098,"ECCENTRICITY":0.00010264,"INCLINATION":53.1604,"RA_OF_ASC_NODE":320.7513,"ARG_OF_PERICENTER":68.0478,"MEAN_ANOMALY":292.0632,"EPHEMERIS_TYPE":0,"CLASSIFICATION_TYPE":"U","NORAD_CAT_ID":64266,"ELEMENT_SET_NO":999,"REV_AT_EPOCH":3713,"BSTAR":0.0014686283,"MEAN_MOTION_DOT":0.00043415,"MEAN_MOTION_DDOT":0},{"OBJECT_NAME":"STARLINK-34321","OBJECT_ID":"2025-120M","EPOCH":"2026-01-24T02:34:21.223776","MEAN_MOTION":15.30185785,"ECCENTRICITY":0.00012444,"INCLINATION":53.1603,"RA_OF_ASC_NODE":323.5405,"ARG_OF_PERICENTER":38.5427,"MEAN_ANOMALY":321.5662,"EPHEMERIS_TYPE":0,"CLASSIFICATION_TYPE":"U","NORAD_CAT_ID":64267,"ELEMENT_SET_NO":999,"REV_AT_EPOCH":3709,"BSTAR":0.0023431584,"MEAN_MOTION_DOT":0.0006966,"MEAN_MOTION_DDOT":0},{"OBJECT_NAME":"STARLINK-34319","OBJECT_ID":"2025-120N","EPOCH":"2026-01-24T03:00:11.180160","MEAN_MOTION":15.30213981,"ECCENTRICITY":0.00015013,"INCLINATION":53.1595,"RA_OF_ASC_NODE":323.6516,"ARG_OF_PERICENTER":87.53,"MEAN_ANOMALY":272.5873,"EPHEMERIS_TYPE":0,"CLASSIFICATION_TYPE":"U","NORAD_CAT_ID":64268,"ELEMENT_SET_NO":999,"REV_AT_EPOCH":3709,"BSTAR":0.00091891271,"MEAN_MOTION_DOT":0.00026967,"MEAN_MOTION_DDOT":0},{"OBJECT_NAME":"STARLINK-34298","OBJECT_ID":"2025-120P","EPOCH":"2026-01-24T19:53:29.988384","MEAN_MOTION":15.30223523,"ECCENTRICITY":0.00013102,"INCLINATION":53.1605,"RA_OF_ASC_NODE":320.2292,"ARG_OF_PERICENTER":78.5733,"MEAN_ANOMALY":281.5415,"EPHEMERIS_TYPE":0,"CLASSIFICATION_TYPE":"U","NORAD_CAT_ID":64269,"ELEMENT_SET_NO":999,"REV_AT_EPOCH":3710,"BSTAR":0.0012945625,"MEAN_MOTION_DOT":0.00038207,"MEAN_MOTION_DDOT":0},{"OBJECT_NAME":"STARLINK-34219","OBJECT_ID":"2025-120Q","EPOCH":"2026-01-24T13:07:03.723168","MEAN_MOTION":15.30207886,"ECCENTRICITY":0.00012256,"INCLINATION":53.1619,"RA_OF_ASC_NODE":322.0141,"ARG_OF_PERICENTER":95.0087,"MEAN_ANOMALY":265.1054,"EPHEMERIS_TYPE":0,"CLASSIFICATION_TYPE":"U","NORAD_CAT_ID":64270,"ELEMENT_SET_NO":999,"REV_AT_EPOCH":3715,"BSTAR":0.0014648417,"MEAN_MOTION_DOT":0.00043289,"MEAN_MOTION_DDOT":0},{"OBJECT_NAME":"STARLINK-34342","OBJECT_ID":"2025-120R","EPOCH":"2026-01-24T18:55:55.144416","MEAN_MOTION":15.30215155,"ECCENTRICITY":0.00011439,"INCLINATION":53.1586,"RA_OF_ASC_NODE":320.6884,"ARG_OF_PERICENTER":103.9613,"MEAN_ANOMALY":256.1515,"EPHEMERIS_TYPE":0,"CLASSIFICATION_TYPE":"U","NORAD_CAT_ID":64271,"ELEMENT_SET_NO":999,"REV_AT_EPOCH":3714,"BSTAR":0.0014255533,"MEAN_MOTION_DOT":0.00042121,"MEAN_MOTION_DDOT":0},{"OBJECT_NAME":"STARLINK-34001","OBJECT_ID":"2025-120S","EPOCH":"2026-01-24T19:29:21.047424","MEAN_MOTION":15.30218199,"ECCENTRICITY":0.00015992,"INCLINATION":53.1639,"RA_OF_ASC_NODE":320.8278,"ARG_OF_PERICENTER":92.2352,"MEAN_ANOMALY":267.8832,"EPHEMERIS_TYPE":0,"CLASSIFICATION_TYPE":"U","NORAD_CAT_ID":64272,"ELEMENT_SET_NO":999,"REV_AT_EPOCH":3709,"BSTAR":0.0012223031,"MEAN_MOTION_DOT":0.00036038,"MEAN_MOTION_DDOT":0},{"OBJECT_NAME":"STARLINK-34334","OBJECT_ID":"2025-120T","EPOCH":"2026-01-24T19:38:18.230784","MEAN_MOTION":15.30212679,"ECCENTRICITY":0.00011134,"INCLINATION":53.1593,"RA_OF_ASC_NODE":320.1553,"ARG_OF_PERICENTER":100.0084,"MEAN_ANOMALY":260.1042,"EPHEMERIS_TYPE":0,"CLASSIFICATION_TYPE":"U","NORAD_CAT_ID":64273,"ELEMENT_SET_NO":999,"REV_AT_EPOCH":3720,"BSTAR":0.00096303324,"MEAN_MOTION_DOT":0.00028283,"MEAN_MOTION_DDOT":0},{"OBJECT_NAME":"STARLINK-34272","OBJECT_ID":"2025-120U","EPOCH":"2026-01-24T19:20:13.835616","MEAN_MOTION":15.30227358,"ECCENTRICITY":0.00014582,"INCLINATION":53.1611,"RA_OF_ASC_NODE":320.7895,"ARG_OF_PERICENTER":65.9729,"MEAN_ANOMALY":294.1424,"EPHEMERIS_TYPE":0,"CLASSIFICATION_TYPE":"U","NORAD_CAT_ID":64274,"ELEMENT_SET_NO":999,"REV_AT_EPOCH":3709,"BSTAR":0.0015910613,"MEAN_MOTION_DOT":0.00047103,"MEAN_MOTION_DDOT":0},{"OBJECT_NAME":"STARLINK-34293","OBJECT_ID":"2025-120V","EPOCH":"2026-01-24T19:24:47.843712","MEAN_MOTION":15.30222388,"ECCENTRICITY":0.00015272,"INCLINATION":53.16,"RA_OF_ASC_NODE":320.8092,"ARG_OF_PERICENTER":65.6556,"MEAN_ANOMALY":294.4604,"EPHEMERIS_TYPE":0,"CLASSIFICATION_TYPE":"U","NORAD_CAT_ID":64275,"ELEMENT_SET_NO":999,"REV_AT_EPOCH":3713,"BSTAR":0.0014405709,"MEAN_MOTION_DOT":0.00042581,"MEAN_MOTION_DDOT":0},{"OBJECT_NAME":"STARLINK-34350","OBJECT_ID":"2025-120W","EPOCH":"2026-01-24T02:43:28.488288","MEAN_MOTION":15.30175248,"ECCENTRICITY":0.00013961,"INCLINATION":53.1596,"RA_OF_ASC_NODE":323.5792,"ARG_OF_PERICENTER":95.9535,"MEAN_ANOMALY":264.1625,"EPHEMERIS_TYPE":0,"CLASSIFICATION_TYPE":"U","NORAD_CAT_ID":64276,"ELEMENT_SET_NO":999,"REV_AT_EPOCH":3709,"BSTAR":0.0023335421,"MEAN_MOTION_DOT":0.00069347,"MEAN_MOTION_DDOT":0},{"OBJECT_NAME":"STARLINK-34264","OBJECT_ID":"2025-120X","EPOCH":"2026-01-24T03:21:27.794592","MEAN_MOTION":15.30216935,"ECCENTRICITY":9.68e-5,"INCLINATION":53.1579,"RA_OF_ASC_NODE":323.7446,"ARG_OF_PERICENTER":96.7617,"MEAN_ANOMALY":263.3494,"EPHEMERIS_TYPE":0,"CLASSIFICATION_TYPE":"U","NORAD_CAT_ID":64277,"ELEMENT_SET_NO":999,"REV_AT_EPOCH":3703,"BSTAR":0.0014383963,"MEAN_MOTION_DOT":0.00042508,"MEAN_MOTION_DDOT":0},{"OBJECT_NAME":"STARLINK-34353","OBJECT_ID":"2025-120Y","EPOCH":"2026-01-24T03:35:08.662848","MEAN_MOTION":15.30172535,"ECCENTRICITY":9.938e-5,"INCLINATION":53.1622,"RA_OF_ASC_NODE":323.8028,"ARG_OF_PERICENTER":83.1823,"MEAN_ANOMALY":276.9291,"EPHEMERIS_TYPE":0,"CLASSIFICATION_TYPE":"U","NORAD_CAT_ID":64278,"ELEMENT_SET_NO":999,"REV_AT_EPOCH":3709,"BSTAR":0.0013893644,"MEAN_MOTION_DOT":0.00040982,"MEAN_MOTION_DDOT":0},{"OBJECT_NAME":"STARLINK-34377","OBJECT_ID":"2025-120Z","EPOCH":"2026-01-24T02:51:04.173120","MEAN_MOTION":15.30178175,"ECCENTRICITY":0.00010315,"INCLINATION":53.1596,"RA_OF_ASC_NODE":323.6102,"ARG_OF_PERICENTER":37.313,"MEAN_ANOMALY":322.7942,"EPHEMERIS_TYPE":0,"CLASSIFICATION_TYPE":"U","NORAD_CAT_ID":64279,"ELEMENT_SET_NO":999,"REV_AT_EPOCH":3709,"BSTAR":0.0015613408,"MEAN_MOTION_DOT":0.00046139,"MEAN_MOTION_DDOT":0},{"OBJECT_NAME":"STARLINK-34359","OBJECT_ID":"2025-120AA","EPOCH":"2026-01-24T19:09:35.581536","MEAN_MOTION":15.30212563,"ECCENTRICITY":9.727e-5,"INCLINATION":53.1597,"RA_OF_ASC_NODE":320.7423,"ARG_OF_PERICENTER":74.994,"MEAN_ANOMALY":285.1169,"EPHEMERIS_TYPE":0,"CLASSIFICATION_TYPE":"U","NORAD_CAT_ID":64280,"ELEMENT_SET_NO":999,"REV_AT_EPOCH":3719,"BSTAR":0.0010009716,"MEAN_MOTION_DOT":0.00029416,"MEAN_MOTION_DDOT":0},{"OBJECT_NAME":"STARLINK-34366","OBJECT_ID":"2025-120AB","EPOCH":"2026-01-24T12:30:35.396928","MEAN_MOTION":15.30200664,"ECCENTRICITY":0.00012677,"INCLINATION":53.16,"RA_OF_ASC_NODE":321.8585,"ARG_OF_PERICENTER":79.0801,"MEAN_ANOMALY":281.0342,"EPHEMERIS_TYPE":0,"CLASSIFICATION_TYPE":"U","NORAD_CAT_ID":64281,"ELEMENT_SET_NO":999,"REV_AT_EPOCH":3710,"BSTAR":0.0012619595,"MEAN_MOTION_DOT":0.00037204,"MEAN_MOTION_DDOT":0},{"OBJECT_NAME":"STARLINK-34381","OBJECT_ID":"2025-120AC","EPOCH":"2026-01-24T22:07:03.943488","MEAN_MOTION":15.30244404,"ECCENTRICITY":0.00028193,"INCLINATION":53.1591,"RA_OF_ASC_NODE":320.0895,"ARG_OF_PERICENTER":77.52,"MEAN_ANOMALY":282.6116,"EPHEMERIS_TYPE":0,"CLASSIFICATION_TYPE":"U","NORAD_CAT_ID":64282,"ELEMENT_SET_NO":999,"REV_AT_EPOCH":3719,"BSTAR":0.0018917006,"MEAN_MOTION_DOT":0.00056173,"MEAN_MOTION_DDOT":0},{"OBJECT_NAME":"STARLINK-34448","OBJECT_ID":"2025-123A","EPOCH":"2026-01-24T01:30:48.843648","MEAN_MOTION":14.98371732,"ECCENTRICITY":0.00035043,"INCLINATION":70.0016,"RA_OF_ASC_NODE":306.9919,"ARG_OF_PERICENTER":270.5101,"MEAN_ANOMALY":89.5656,"EPHEMERIS_TYPE":0,"CLASSIFICATION_TYPE":"U","NORAD_CAT_ID":64291,"ELEMENT_SET_NO":999,"REV_AT_EPOCH":3615,"BSTAR":0.00097947292,"MEAN_MOTION_DOT":0.00011626,"MEAN_MOTION_DDOT":0},{"OBJECT_NAME":"STARLINK-34362","OBJECT_ID":"2025-123B","EPOCH":"2026-01-24T17:49:57.336672","MEAN_MOTION":14.98799642,"ECCENTRICITY":0.00089881,"INCLINATION":70.0015,"RA_OF_ASC_NODE":305.3457,"ARG_OF_PERICENTER":268.9074,"MEAN_ANOMALY":91.1056,"EPHEMERIS_TYPE":0,"CLASSIFICATION_TYPE":"U","NORAD_CAT_ID":64292,"ELEMENT_SET_NO":999,"REV_AT_EPOCH":3625,"BSTAR":0.026185647,"MEAN_MOTION_DOT":0.00331714,"MEAN_MOTION_DDOT":0},{"OBJECT_NAME":"STARLINK-34428","OBJECT_ID":"2025-123C","EPOCH":"2026-01-24T18:38:01.029120","MEAN_MOTION":14.98339184,"ECCENTRICITY":0.00016748,"INCLINATION":70.0019,"RA_OF_ASC_NODE":305.0594,"ARG_OF_PERICENTER":269.9745,"MEAN_ANOMALY":90.1222,"EPHEMERIS_TYPE":0,"CLASSIFICATION_TYPE":"U","NORAD_CAT_ID":64293,"ELEMENT_SET_NO":999,"REV_AT_EPOCH":3626,"BSTAR":0.00023326313,"MEAN_MOTION_DOT":2.692e-5,"MEAN_MOTION_DDOT":0}]
